{"type":"FeatureCollection","features":[{"type":"Feature","id":0,"geometry":{"type":"Polygon","coordinates":[[[116.97801365400005,-0.99422340699993583],[116.9784076310001,-0.99441039899994621],[116.97858104700003,-0.99403837999994948],[116.97818784300011,-0.99384943699993755],[116.97801365400005,-0.99422340699993583]]]},"properties":{"FID":0,"Name":"YJP","FolderPath":"yjp_office.kmz","SymbolID":0,"AltMode":0,"Base":0,"Clamped":-1,"Extruded":0,"Snippet":" ","PopupInfo":" ","Shape_Leng":0.00169534469339,"Shape_Area":1.7947631316499999e-07}}]}